[
    {
        "Altitude(m)": 604221.1958122121,
        "Argument of Periapsis(deg)": 0.0,
        "Eccentricity": 0.0,
        "Inclination(deg)": 60.0,
        "Latitude(deg)": 14.117197295912668,
        "Longitude(deg)": -121.66583481500065,
        "Mean Anomaly(deg)": 16.363599999999984,
        "RAAN(deg)": 330.0,
        "Satellite Name": "Test1 1453",
        "Satellite Number": 1453,
        "Semi-Major Axis(m)": 6980739.136638005,
        "Time(s)": 0
    },
    {
        "Altitude(m)": 604235.3363888891,
        "Argument of Periapsis(deg)": 0.00010418945913296404,
        "Eccentricity": 0.0,
        "Inclination(deg)": 60.0,
        "Latitude(deg)": 14.651593832503728,
        "Longitude(deg)": -121.37738748414186,
        "Mean Anomaly(deg)": 16.983706145461838,
        "RAAN(deg)": 329.9995799508602,
        "Satellite Name": "Test1 1453",
        "Satellite Number": 1453,
        "Semi-Major Axis(m)": 6980739.136638005,
        "Time(s)": 10
    }
]